0 WESTFORD NEEDLES
1 02375U 63014W   13280.20893119  .00004595  00000-0  45318+0 0  8271
2 02375 086.5471 001.8750 1702414 315.1463 049.9547 08.74243031529425
0 WESTFORD NEEDLES
1 02375U 63014W   13284.21376274  .00004798  00000-0  46996+0 0  8283
2 02375 086.5493 001.3362 1705957 310.7022 054.6099 08.74280432529779
0 WESTFORD NEEDLES
1 02375U 63014W   13286.15963020  .00004882  00000-0  47601+0 0  8298
2 02375 086.5500 001.0738 1708466 308.5323 059.1517 08.74297116529940
0 WESTFORD NEEDLES
1 02375U 63014W   13290.16557953  .00004989  00000-0  48352+0 0  8302
2 02375 086.5512 000.5354 1711492 304.1183 068.1062 08.74339886530296
